NORAD_CAT_ID,OBJECT_NAME,OBJECT_TYPE,EPOCH,MEAN_MOTION,ECCENTRICITY,INCLINATION,RA_OF_ASC_NODE,ARG_OF_PERICENTER,MEAN_ANOMALY,BSTAR,MEAN_MOTION_DOT,MEAN_MOTION_DDOT,TLE_LINE0,TLE_LINE1,TLE_LINE2,SEMIMAJOR_AXIS,PERIOD,APOGEE,PERIGEE,DECAYED
51755.0,STARLINK-3460,PAYLOAD,2023-03-27 02:33:17,15.08854578,9.14e-05,53.2144,111.0657,72.5785,287.5307,0.00093141,0.00014572,0.0,0 STARLINK-3460,1 51755U 22016AT  23086.10645458  .00014572  00000-0  93141-3 0  9996,2 51755  53.2144 111.0657 0000914  72.5785 287.5307 15.08854578 61980,6917.836,95.437,540.333,539.069,0.0
51755.0,STARLINK-3460,PAYLOAD,2023-03-27 12:05:35,15.08880801,9.65e-05,53.2144,109.2825,77.1143,282.9957,0.0012119,0.00019074,0.0,0 STARLINK-3460,1 51755U 22016AT  23086.50388408  .00019074  00000-0  12119-2 0  9996,2 51755  53.2144 109.2825 0000965  77.1143 282.9957 15.08880801 62047,6917.756,95.435,540.288,538.953,0.0
51755.0,STARLINK-3460,PAYLOAD,2023-03-27 18:27:08,15.08867256,9.63e-05,53.2144,108.0928,82.731,277.3792,0.00072544,0.00011285,0.0,0 STARLINK-3460,1 51755U 22016AT  23086.76884338  .00011285  00000-0  72544-3 0  9992,2 51755  53.2144 108.0928 0000963  82.7310 277.3792 15.08867256 62082,6917.797,95.436,540.328,538.996,0.0
51755.0,STARLINK-3460,PAYLOAD,2023-03-28 05:34:49,15.08860183,0.0001438,53.2152,106.0113,84.5405,275.5751,0.00034254,5.171e-05,0.0,0 STARLINK-3460,1 51755U 22016AT  23087.23252153  .00005171  00000-0  34254-3 0  9992,2 51755  53.2152 106.0113 0001438  84.5405 275.5751 15.08860183 62153,6917.819,95.436,540.678,538.689,0.0
51755.0,STARLINK-3460,PAYLOAD,2023-03-28 10:20:58,15.08863499,0.0001041,53.2153,105.1192,84.8133,275.2978,0.00059391,9.183e-05,0.0,0 STARLINK-3460,1 51755U 22016AT  23087.43123833  .00009183  00000-0  59391-3 0  9992,2 51755  53.2153 105.1192 0001041  84.8133 275.2978 15.08863499 61073,6917.809,95.436,540.394,538.953,0.0
51755.0,STARLINK-3460,PAYLOAD,2023-03-28 18:17:54,15.08852003,0.000143,53.2145,103.6321,82.0299,278.0855,0.00058052,8.966e-05,0.0,0 STARLINK-3460,1 51755U 22016AT  23087.76244129  .00008966  00000-0  58052-3 0  9991,2 51755  53.2145 103.6321 0001430  82.0299 278.0855 15.08852003 61126,6917.844,95.437,540.698,538.719,0.0
51755.0,STARLINK-3460,PAYLOAD,2023-03-29 00:39:27,15.08853711,0.0001573,53.2144,102.4429,82.3102,277.8068,0.00074036,0.00011519,0.0,0 STARLINK-3460,1 51755U 22016AT  23088.02740086  .00011519  00000-0  74036-3 0  9992,2 51755  53.2144 102.4429 0001573  82.3102 277.8068 15.08853711 62272,6917.838,95.437,540.792,538.615,0.0
51755.0,STARLINK-3460,PAYLOAD,2023-03-29 13:22:32,15.08854074,0.0001347,53.2149,100.0638,78.1637,281.9506,0.00049103,7.538e-05,0.0,0 STARLINK-3460,1 51755U 22016AT  23088.55731816  .00007538  00000-0  49103-3 0  9994,2 51755  53.2149 100.0638 0001347  78.1637 281.9506 15.08854074 62353,6917.837,95.437,540.634,538.771,0.0
51755.0,STARLINK-3460,PAYLOAD,2023-03-29 18:08:41,15.0884675,0.0001456,53.2156,99.1737,73.0143,287.1009,0.00025458,3.767e-05,0.0,0 STARLINK-3460,1 51755U 22016AT  23088.75604038  .00003767  00000-0  25458-3 0  9998,2 51755  53.2156  99.1737 0001456  73.0143 287.1009 15.08846750 62387,6917.86,95.437,540.732,538.718,0.0
51755.0,STARLINK-3460,PAYLOAD,2023-03-30 10:02:33,15.08848321,0.0001267,53.2162,96.1976,91.8247,268.289,0.00020804,3.025e-05,0.0,0 STARLINK-3460,1 51755U 22016AT  23089.41843889  .00003025  00000-0  20804-3 0  9998,2 51755  53.2162  96.1976 0001267  91.8247 268.2890 15.08848321 61371,6917.855,95.437,540.596,538.843,0.0
51755.0,STARLINK-3460,PAYLOAD,2023-03-31 06:42:34,15.08845811,0.0001303,53.2148,92.3319,86.444,273.6701,0.0002217,3.243e-05,0.0,0 STARLINK-3460,1 51755U 22016AT  23090.27956137  .00003243  00000-0  22170-3 0  9995,2 51755  53.2148  92.3319 0001303  86.4440 273.6701 15.08845811 62610,6917.863,95.437,540.629,538.826,0.0
51755.0,STARLINK-3460,PAYLOAD,2023-04-01 04:57:58,15.08837333,0.0001423,53.2156,88.1694,92.4837,267.6318,9.2639e-05,1.187e-05,0.0,0 STARLINK-3460,1 51755U 22016AT  23091.20692611  .00001187  00000-0  92639-4 0  9996,2 51755  53.2156  88.1694 0001423  92.4837 267.6318 15.08837333 62750,6917.889,95.438,540.738,538.769,0.0
51755.0,STARLINK-3460,PAYLOAD,2023-04-01 06:33:21,15.08841319,0.0001357,53.2151,87.8709,93.3718,266.743,2.0683e-05,4.1e-07,0.0,0 STARLINK-3460,1 51755U 22016AT  23091.27316424  .00000041  00000-0  20683-4 0  9996,2 51755  53.2151  87.8709 0001357  93.3718 266.7430 15.08841319 61654,6917.876,95.437,540.68,538.803,0.0
51755.0,STARLINK-3460,PAYLOAD,2023-04-01 16:05:40,15.08839715,0.0001337,53.2155,86.0869,92.8073,267.3072,3.9107e-05,3.35e-06,0.0,0 STARLINK-3460,1 51755U 22016AT  23091.67060479  .00000335  00000-0  39107-4 0  9993,2 51755  53.2155  86.0869 0001337  92.8073 267.3072 15.08839715 61715,6917.881,95.438,540.671,538.821,0.0
51755.0,STARLINK-3460,PAYLOAD,2023-04-02 06:24:08,15.08841025,0.0001378,53.216,83.4123,100.8734,259.2413,0.00012664,1.728e-05,0.0,0 STARLINK-3460,1 51755U 22016AT  23092.26676705  .00001728  00000-0  12664-3 0  9999,2 51755  53.2160  83.4123 0001378 100.8734 259.2413 15.08841025 62913,6917.877,95.437,540.696,538.789,0.0
51755.0,STARLINK-3460,PAYLOAD,2023-04-02 09:34:54,15.08842487,0.0001374,53.2157,82.8166,99.4466,260.6681,0.00014374,2.001e-05,0.0,0 STARLINK-3460,1 51755U 22016AT  23092.39924650  .00002001  00000-0  14374-3 0  9993,2 51755  53.2157  82.8166 0001374  99.4466 260.6681 15.08842487 61825,6917.873,95.437,540.688,538.787,0.0
51755.0,STARLINK-3460,PAYLOAD,2023-04-02 15:56:27,15.08838391,0.0001294,53.2158,81.6267,100.4135,259.7003,2.9915e-05,1.88e-06,0.0,0 STARLINK-3460,1 51755U 22016AT  23092.66420685  .00000188  00000-0  29915-4 0  9994,2 51755  53.2158  81.6267 0001294 100.4135 259.7003 15.08838391 61862,6917.885,95.438,540.645,538.855,0.0
51755.0,STARLINK-3460,PAYLOAD,2023-04-03 07:50:18,15.0884125,0.0001271,53.216,78.6537,100.1905,259.923,0.00014545,2.028e-05,0.0,0 STARLINK-3460,1 51755U 22016AT  23093.32660773  .00002028  00000-0  14545-3 0  9999,2 51755  53.2160  78.6537 0001271 100.1905 259.9230 15.08841250 63075,6917.877,95.437,540.621,538.862,0.0
51755.0,STARLINK-3460,PAYLOAD,2023-04-03 15:47:14,15.08844145,0.0001373,53.2163,77.1673,122.916,237.1964,-8.4285e-06,-4.22e-06,0.0,0 STARLINK-3460,1 51755U 22016AT  23093.65780514 -.00000422  00000-0 -84285-5 0  9999,2 51755  53.2163  77.1673 0001373 122.9160 237.1964 15.08844145 62012,6917.868,95.437,540.683,538.783,0.0
51755.0,STARLINK-3460,PAYLOAD,2023-04-04 09:16:29,15.08841952,0.0001447,53.2157,73.8947,94.1177,265.9981,0.00017979,2.575e-05,0.0,0 STARLINK-3460,1 51755U 22016AT  23094.38644991  .00002575  00000-0  17979-3 0  9991,2 51755  53.2157  73.8947 0001447  94.1177 265.9981 15.08841952 63238,6917.874,95.437,540.74,538.738,0.0
51755.0,STARLINK-3460,PAYLOAD,2023-04-05 07:31:53,15.0884097,0.0001564,53.2165,69.7305,81.9908,278.1261,1.6199e-05,-3e-07,0.0,0 STARLINK-3460,1 51755U 22016AT  23095.31381251 -.00000030  00000-0  16199-4 0  9991,2 51755  53.2165  69.7305 0001564  81.9908 278.1261 15.08840970 62263,6917.877,95.437,540.824,538.66,0.0
51755.0,STARLINK-3460,PAYLOAD,2023-04-05 15:28:48,15.08842258,0.000138,53.2156,68.2438,93.0042,267.1108,5.8333e-05,6.41e-06,0.0,0 STARLINK-3460,1 51755U 22016AT  23095.64501101  .00000641  00000-0  58333-4 0  9998,2 51755  53.2156  68.2438 0001380  93.0042 267.1108 15.08842258 63421,6917.873,95.437,540.693,538.784,0.0
51755.0,STARLINK-3460,PAYLOAD,2023-04-06 07:22:39,15.08850843,0.0001247,53.2152,65.2697,100.3659,259.7474,0.00017757,2.54e-05,0.0,0 STARLINK-3460,1 51755U 22016AT  23096.30740613  .00002540  00000-0  17757-3 0  9999,2 51755  53.2152  65.2697 0001247 100.3659 259.7474 15.08850843 62419,6917.847,95.437,540.575,538.85,0.0
51755.0,STARLINK-3460,PAYLOAD,2023-04-06 15:19:35,15.08842578,0.0001215,53.216,63.784,88.8407,271.2724,7.5049e-05,9.07e-06,0.0,0 STARLINK-3460,1 51755U 22016AT  23096.63861008  .00000907  00000-0  75049-4 0  9991,2 51755  53.2160  63.7840 0001215  88.8407 271.2724 15.08842578 62465,6917.873,95.437,540.578,538.897,0.0
51755.0,STARLINK-3460,PAYLOAD,2023-04-07 04:02:41,15.08839488,0.000137,53.2165,61.4052,91.246,268.8689,5.6415e-05,6.1e-06,0.0,0 STARLINK-3460,1 51755U 22016AT  23097.16853444  .00000610  00000-0  56415-4 0  9992,2 51755  53.2165  61.4052 0001370  91.2460 268.8689 15.08839488 63659,6917.882,95.438,540.695,538.799,0.0
51755.0,STARLINK-3460,PAYLOAD,2023-04-07 07:13:27,15.08840484,0.0001407,53.2165,60.81,92.4301,267.6852,7.4766e-05,9.02e-06,0.0,0 STARLINK-3460,1 51755U 22016AT  23097.30101407  .00000902  00000-0  74766-4 0  9996,2 51755  53.2165  60.8100 0001407  92.4301 267.6852 15.08840484 62560,6917.879,95.438,540.717,538.771,0.0
51755.0,STARLINK-3460,PAYLOAD,2023-04-08 07:04:14,15.08849719,0.0001347,53.2175,56.3485,98.4654,261.6491,0.00017454,2.492e-05,0.0,0 STARLINK-3460,1 51755U 22016AT  23098.29460874  .00002492  00000-0  17454-3 0  9997,2 51755  53.2175  56.3485 0001347  98.4654 261.6491 15.08849719 63820,6917.851,95.437,540.648,538.784,0.0
51755.0,STARLINK-3460,PAYLOAD,2023-04-08 21:22:42,15.08837568,0.0001288,53.2167,53.6722,96.3796,263.7343,0.000119,1.606e-05,0.0,0 STARLINK-3460,1 51755U 22016AT  23098.89077497  .00001606  00000-0  11900-3 0  9994,2 51755  53.2167  53.6722 0001288  96.3796 263.7343 15.08837568 63911,6917.888,95.438,540.644,538.862,0.0
51755.0,STARLINK-3460,PAYLOAD,2023-04-09 05:19:38,15.08846657,0.0001143,53.2165,52.1875,91.8795,268.2328,0.0001612,2.279e-05,0.0,0 STARLINK-3460,1 51755U 22016AT  23099.22197043  .00002279  00000-0  16120-3 0  9998,2 51755  53.2165  52.1875 0001143  91.8795 268.2328 15.08846657 63968,6917.86,95.437,540.516,538.934,0.0
51755.0,STARLINK-3460,PAYLOAD,2023-04-10 06:45:48,15.08842233,0.0001228,53.218,47.4304,95.8566,264.2566,1.5044e-05,-4.8e-07,0.0,0 STARLINK-3460,1 51755U 22016AT  23100.28181349 -.00000048  00000-0  15044-4 0  9997,2 51755  53.2180  47.4304 0001228  95.8566 264.2566 15.08842233 64128,6917.874,95.437,540.588,538.889,0.0
